COSMOS 2151             
1 21422U 91042A   25324.73743536  .00001766  00000+0  14119-3 0  9999
2 21422  82.4977 188.7028 0014080  69.1391 291.1339 14.99575389846866
SL-14 R/B               
1 21423U 91042B   25324.49687360  .00000494  00000+0  59701-4 0  9999
2 21423  82.4914 322.5842 0015681 237.1373 122.8332 14.81709527836906
ERS-1                   
1 21574U 91050A   25324.49190509  .00000370  00000+0  13332-3 0  9991
2 21574  98.7915 334.9892 0032295 164.4861 195.7323 14.39340573800028
ARIANE 40 R/B           
1 21610U 91050F   25324.59443707  .00000405  00000+0  13406-3 0  9995
2 21610  98.2198  15.8212 0004013  58.9425 301.2159 14.42786852803266
INTERCOSMOS 25          
1 21819U 91086A   25324.59134152  .00001407  00000+0  27568-3 0  9993
2 21819  82.6082  15.9664 1487746 352.1523   5.8396 12.11629720483476
SL-8 R/B                
1 21876U 92008B   25324.51878625  .00000137  00000+0  12468-3 0  9995
2 21876  82.9273 348.9761 0036098  80.1806  71.9021 13.75952057694401
SL-8 R/B                
1 21938U 92020B   25324.72206616  .00000088  00000+0  75521-4 0  9991
2 21938  82.9316 234.6654 0027744 241.1719 151.2391 13.75523073686157
USA 81                  
1 21949U 92023A   25324.60897235  .00000217  00000+0  72891-4 0  9997
2 21949  85.0101 194.3375 0002400  69.7370 290.4080 14.32315787 79170
COSMOS 2219             
1 22219U 92076A   25324.79544264 -.00000114  00000+0 -35053-4 0  9994
2 22219  71.0608 245.7022 0018204 357.9886   2.1160 14.14067500702987
SL-16 R/B               
1 22220U 92076B   25324.70948221 -.00000024  00000+0  12060-4 0  9990
2 22220  71.0010  57.9363 0015189 262.7094 259.0043 14.16835509706396
COSMOS 2221             
1 22236U 92080A   25324.60696781  .00001807  00000+0  16004-3 0  9992
2 22236  82.5064  23.5064 0014285 193.1892 166.8959 14.95642506764480
SL-16 R/B               
1 22285U 92093B   25324.76534779 -.00000021  00000+0  13586-4 0  9996
2 22285  71.0218 232.9219 0002215 138.0976 222.0317 14.15428166697740
