CCSDS_OMM_VERS = 2.0
CREATION_DATE  = 
ORIGINATOR     = 

OBJECT_NAME    = COSMOS 2151
OBJECT_ID      = 1991-042A
CENTER_NAME    = EARTH
REF_FRAME      = TEME
TIME_SYSTEM    = UTC
MEAN_ELEMENT_THEORY = SGP/SGP4

EPOCH          = 2025-11-20T17:41:54.415104
MEAN_MOTION    = 14.99575389
ECCENTRICITY   = .001408
INCLINATION    = 82.4977
RA_OF_ASC_NODE = 188.7028
ARG_OF_PERICENTER = 69.1391
MEAN_ANOMALY   = 291.1339

EPHEMERIS_TYPE = 0
CLASSIFICATION_TYPE = U
NORAD_CAT_ID   = 21422
ELEMENT_SET_NO = 999
REV_AT_EPOCH   = 84686
BSTAR          = .14119E-3
MEAN_MOTION_DOT = .1766E-4
MEAN_MOTION_DDOT = 0

CCSDS_OMM_VERS = 2.0
CREATION_DATE  = 
ORIGINATOR     = 

OBJECT_NAME    = SL-14 R/B
OBJECT_ID      = 1991-042B
CENTER_NAME    = EARTH
REF_FRAME      = TEME
TIME_SYSTEM    = UTC
MEAN_ELEMENT_THEORY = SGP/SGP4

EPOCH          = 2025-11-20T11:55:29.879040
MEAN_MOTION    = 14.81709527
ECCENTRICITY   = .0015681
INCLINATION    = 82.4914
RA_OF_ASC_NODE = 322.5842
ARG_OF_PERICENTER = 237.1373
MEAN_ANOMALY   = 122.8332

EPHEMERIS_TYPE = 0
CLASSIFICATION_TYPE = U
NORAD_CAT_ID   = 21423
ELEMENT_SET_NO = 999
REV_AT_EPOCH   = 83690
BSTAR          = .59701E-4
MEAN_MOTION_DOT = .494E-5
MEAN_MOTION_DDOT = 0

CCSDS_OMM_VERS = 2.0
CREATION_DATE  = 
ORIGINATOR     = 

OBJECT_NAME    = ERS-1
OBJECT_ID      = 1991-050A
CENTER_NAME    = EARTH
REF_FRAME      = TEME
TIME_SYSTEM    = UTC
MEAN_ELEMENT_THEORY = SGP/SGP4

EPOCH          = 2025-11-20T11:48:20.599776
MEAN_MOTION    = 14.39340573
ECCENTRICITY   = .0032295
INCLINATION    = 98.7915
RA_OF_ASC_NODE = 334.9892
ARG_OF_PERICENTER = 164.4861
MEAN_ANOMALY   = 195.7323

EPHEMERIS_TYPE = 0
CLASSIFICATION_TYPE = U
NORAD_CAT_ID   = 21574
ELEMENT_SET_NO = 999
REV_AT_EPOCH   = 80002
BSTAR          = .13332E-3
MEAN_MOTION_DOT = .37E-5
MEAN_MOTION_DDOT = 0

CCSDS_OMM_VERS = 2.0
CREATION_DATE  = 
ORIGINATOR     = 

OBJECT_NAME    = ARIANE 40 R/B
OBJECT_ID      = 1991-050F
CENTER_NAME    = EARTH
REF_FRAME      = TEME
TIME_SYSTEM    = UTC
MEAN_ELEMENT_THEORY = SGP/SGP4

EPOCH          = 2025-11-20T14:15:59.362848
MEAN_MOTION    = 14.42786852
ECCENTRICITY   = .0004013
INCLINATION    = 98.2198
RA_OF_ASC_NODE = 15.8212
ARG_OF_PERICENTER = 58.9425
MEAN_ANOMALY   = 301.2159

EPHEMERIS_TYPE = 0
CLASSIFICATION_TYPE = U
NORAD_CAT_ID   = 21610
ELEMENT_SET_NO = 999
REV_AT_EPOCH   = 80326
BSTAR          = .13406E-3
MEAN_MOTION_DOT = .405E-5
MEAN_MOTION_DDOT = 0

CCSDS_OMM_VERS = 2.0
CREATION_DATE  = 
ORIGINATOR     = 

OBJECT_NAME    = INTERCOSMOS 25
OBJECT_ID      = 1991-086A
CENTER_NAME    = EARTH
REF_FRAME      = TEME
TIME_SYSTEM    = UTC
MEAN_ELEMENT_THEORY = SGP/SGP4

EPOCH          = 2025-11-20T14:11:31.907328
MEAN_MOTION    = 12.11629720
ECCENTRICITY   = .1487746
INCLINATION    = 82.6082
RA_OF_ASC_NODE = 15.9664
ARG_OF_PERICENTER = 352.1523
MEAN_ANOMALY   = 5.8396

EPHEMERIS_TYPE = 0
CLASSIFICATION_TYPE = U
NORAD_CAT_ID   = 21819
ELEMENT_SET_NO = 999
REV_AT_EPOCH   = 48347
BSTAR          = .27568E-3
MEAN_MOTION_DOT = .1407E-4
MEAN_MOTION_DDOT = 0

CCSDS_OMM_VERS = 2.0
CREATION_DATE  = 
ORIGINATOR     = 

OBJECT_NAME    = SL-8 R/B
OBJECT_ID      = 1992-008B
CENTER_NAME    = EARTH
REF_FRAME      = TEME
TIME_SYSTEM    = UTC
MEAN_ELEMENT_THEORY = SGP/SGP4

EPOCH          = 2025-11-20T12:27:03.132000
MEAN_MOTION    = 13.75952057
ECCENTRICITY   = .0036098
INCLINATION    = 82.9273
RA_OF_ASC_NODE = 348.9761
ARG_OF_PERICENTER = 80.1806
MEAN_ANOMALY   = 71.9021

EPHEMERIS_TYPE = 0
CLASSIFICATION_TYPE = U
NORAD_CAT_ID   = 21876
ELEMENT_SET_NO = 999
REV_AT_EPOCH   = 69440
BSTAR          = .12468E-3
MEAN_MOTION_DOT = .137E-5
MEAN_MOTION_DDOT = 0

CCSDS_OMM_VERS = 2.0
CREATION_DATE  = 
ORIGINATOR     = 

OBJECT_NAME    = SL-8 R/B
OBJECT_ID      = 1992-020B
CENTER_NAME    = EARTH
REF_FRAME      = TEME
TIME_SYSTEM    = UTC
MEAN_ELEMENT_THEORY = SGP/SGP4

EPOCH          = 2025-11-20T17:19:46.516224
MEAN_MOTION    = 13.75523073
ECCENTRICITY   = .0027744
INCLINATION    = 82.9316
RA_OF_ASC_NODE = 234.6654
ARG_OF_PERICENTER = 241.1719
MEAN_ANOMALY   = 151.2391

EPHEMERIS_TYPE = 0
CLASSIFICATION_TYPE = U
NORAD_CAT_ID   = 21938
ELEMENT_SET_NO = 999
REV_AT_EPOCH   = 68615
BSTAR          = .75521E-4
MEAN_MOTION_DOT = .88E-6
MEAN_MOTION_DDOT = 0

CCSDS_OMM_VERS = 2.0
CREATION_DATE  = 
ORIGINATOR     = 

OBJECT_NAME    = USA 81
OBJECT_ID      = 1992-023A
CENTER_NAME    = EARTH
REF_FRAME      = TEME
TIME_SYSTEM    = UTC
MEAN_ELEMENT_THEORY = SGP/SGP4

EPOCH          = 2025-11-20T14:36:55.211040
MEAN_MOTION    = 14.32315787
ECCENTRICITY   = .00024
INCLINATION    = 85.0101
RA_OF_ASC_NODE = 194.3375
ARG_OF_PERICENTER = 69.7370
MEAN_ANOMALY   = 290.4080

EPHEMERIS_TYPE = 0
CLASSIFICATION_TYPE = U
NORAD_CAT_ID   = 21949
ELEMENT_SET_NO = 999
REV_AT_EPOCH   = 7917
BSTAR          = .72891E-4
MEAN_MOTION_DOT = .217E-5
MEAN_MOTION_DDOT = 0

CCSDS_OMM_VERS = 2.0
CREATION_DATE  = 
ORIGINATOR     = 

OBJECT_NAME    = COSMOS 2219
OBJECT_ID      = 1992-076A
CENTER_NAME    = EARTH
REF_FRAME      = TEME
TIME_SYSTEM    = UTC
MEAN_ELEMENT_THEORY = SGP/SGP4

EPOCH          = 2025-11-20T19:05:26.244096
MEAN_MOTION    = 14.14067500
ECCENTRICITY   = .0018204
INCLINATION    = 71.0608
RA_OF_ASC_NODE = 245.7022
ARG_OF_PERICENTER = 357.9886
MEAN_ANOMALY   = 2.1160

EPHEMERIS_TYPE = 0
CLASSIFICATION_TYPE = U
NORAD_CAT_ID   = 22219
ELEMENT_SET_NO = 999
REV_AT_EPOCH   = 70298
BSTAR          = -.35053E-4
MEAN_MOTION_DOT = -.114E-5
MEAN_MOTION_DDOT = 0

CCSDS_OMM_VERS = 2.0
CREATION_DATE  = 
ORIGINATOR     = 

OBJECT_NAME    = SL-16 R/B
OBJECT_ID      = 1992-076B
CENTER_NAME    = EARTH
REF_FRAME      = TEME
TIME_SYSTEM    = UTC
MEAN_ELEMENT_THEORY = SGP/SGP4

EPOCH          = 2025-11-20T17:01:39.262944
MEAN_MOTION    = 14.16835509
ECCENTRICITY   = .0015189
INCLINATION    = 71.0010
RA_OF_ASC_NODE = 57.9363
ARG_OF_PERICENTER = 262.7094
MEAN_ANOMALY   = 259.0043

EPHEMERIS_TYPE = 0
CLASSIFICATION_TYPE = U
NORAD_CAT_ID   = 22220
ELEMENT_SET_NO = 999
REV_AT_EPOCH   = 70639
BSTAR          = .1206E-4
MEAN_MOTION_DOT = -.24E-6
MEAN_MOTION_DDOT = 0

CCSDS_OMM_VERS = 2.0
CREATION_DATE  = 
ORIGINATOR     = 

OBJECT_NAME    = COSMOS 2221
OBJECT_ID      = 1992-080A
CENTER_NAME    = EARTH
REF_FRAME      = TEME
TIME_SYSTEM    = UTC
MEAN_ELEMENT_THEORY = SGP/SGP4

EPOCH          = 2025-11-20T14:34:02.018784
MEAN_MOTION    = 14.95642506
ECCENTRICITY   = .0014285
INCLINATION    = 82.5064
RA_OF_ASC_NODE = 23.5064
ARG_OF_PERICENTER = 193.1892
MEAN_ANOMALY   = 166.8959

EPHEMERIS_TYPE = 0
CLASSIFICATION_TYPE = U
NORAD_CAT_ID   = 22236
ELEMENT_SET_NO = 999
REV_AT_EPOCH   = 76448
BSTAR          = .16004E-3
MEAN_MOTION_DOT = .1807E-4
MEAN_MOTION_DDOT = 0

CCSDS_OMM_VERS = 2.0
CREATION_DATE  = 
ORIGINATOR     = 

OBJECT_NAME    = SL-16 R/B
OBJECT_ID      = 1992-093B
CENTER_NAME    = EARTH
REF_FRAME      = TEME
TIME_SYSTEM    = UTC
MEAN_ELEMENT_THEORY = SGP/SGP4

EPOCH          = 2025-11-20T18:22:06.049056
MEAN_MOTION    = 14.15428166
ECCENTRICITY   = .0002215
INCLINATION    = 71.0218
RA_OF_ASC_NODE = 232.9219
ARG_OF_PERICENTER = 138.0976
MEAN_ANOMALY   = 222.0317

EPHEMERIS_TYPE = 0
CLASSIFICATION_TYPE = U
NORAD_CAT_ID   = 22285
ELEMENT_SET_NO = 999
REV_AT_EPOCH   = 69774
BSTAR          = .13586E-4
MEAN_MOTION_DOT = -.21E-6
MEAN_MOTION_DDOT = 0

